[ {"name": "STARLINK-34059", "line1": "1 63872U 25094J   26192.62393504  .00007291  00000+0  61793-3 0  9995", "line2": "2 63872  70.0037 282.1263 0002334 273.7509  86.3383 14.98349467 65764"}, {"name": "STARLINK-33987", "line1": "1 63873U 25094K   26192.25675608  .00001328  00000+0  11903-3 0  9996", "line2": "2 63873  70.0010 282.8503 0003452 268.7255  91.3509 14.98333399 65712"}, {"name": "STARLINK-34052", "line1": "1 63874U 25094L   26192.68654104  .00001062  00000+0  96761-4 0  9993", "line2": "2 63874  70.0039 281.9426 0002617 286.4870  73.6001 14.98329544 65773"}, {"name": "STARLINK-34023", "line1": "1 63875U 25094M   26192.71989650  .00002300  00000+0  20045-3 0  9992", "line2": "2 63875  70.0014 281.6539 0004474 255.4088 104.6575 14.98336158 65779"}, {"name": "STARLINK-33778", "line1": "1 63877U 25094P   26192.67417945  .00003363  00000+0  28936-3 0  9999", "line2": "2 63877  70.0020 281.8937 0003765 277.2538  82.8193 14.98343427 65776"}, {"name": "STARLINK-33901", "line1": "1 63878U 25094Q   26192.62413197  .00000114  00000+0  17340-4 0  9999", "line2": "2 63878  70.0028 282.1201 0003075 275.6336  84.4472 14.98319693 65760"}, {"name": "STARLINK-33812", "line1": "1 63879U 25094R   26192.66566480  .00001994  00000+0  17485-3 0  9994", "line2": "2 63879  70.0011 281.8621 0003638 271.2021  88.8721 14.98334503 65776"}, {"name": "STARLINK-33779", "line1": "1 63880U 25094S   26192.68234972  .00003407  00000+0  29299-3 0  9993", "line2": "2 63880  70.0016 281.9294 0003763 274.2419  85.8310 14.98358099 65770"}, {"name": "STARLINK-33905", "line1": "1 63881U 25094T   26192.64061805  .00001093  00000+0  99370-4 0  9990", "line2": "2 63881  70.0011 281.7791 0003739 269.0427  91.0303 14.98336626 65773"}, {"name": "STARLINK-34003", "line1": "1 63882U 25094U   26192.51809830  .00023395  00000+0  50011-3 0  9992", "line2": "2 63882  70.0039 230.8375 0004197 263.8818  96.1887 15.44769729 67032"}, {"name": "STARLINK-33943", "line1": "1 63884U 25094W   26192.63644498  .00002922  00000+0  25251-3 0  9995", "line2": "2 63884  70.0000 281.7659 0004379 273.7332  86.3326 14.98335587 65772"}, {"name": "STARLINK-33858", "line1": "1 63885U 25094X   26192.66149049  .00002300  00000+0  20048-3 0  9990", "line2": "2 63885  70.0013 281.8515 0003707 269.6774  90.3960 14.98335287 65773"}, {"name": "STARLINK-33885", "line1": "1 63886U 25094Y   26192.64479359  .00001558  00000+0  13837-3 0  9991", "line2": "2 63886  70.0012 281.7915 0003738 268.9103  91.1628 14.98332128 65779"}, {"name": "STARLINK-33904", "line1": "1 63887U 25094Z   26192.64078494  .00002079  00000+0  18198-3 0  9991", "line2": "2 63887  70.0005 281.7766 0003563 271.6836  88.3915 14.98337497 65777"}, {"name": "STARLINK-33981", "line1": "1 63888U 25094AA  26192.67835115  .00001388  00000+0  12407-3 0  9995", "line2": "2 63888  70.0015 281.9081 0003462 265.9171  94.1593 14.98334223 65778"}, {"name": "STARLINK-33738", "line1": "1 63889U 25094AB  26192.66582824  .00002006  00000+0  17587-3 0  9993", "line2": "2 63889  70.0013 281.8405 0003690 269.4188  90.6548 14.98334355 65997"}, {"name": "STARLINK-34116", "line1": "1 63890U 25095A   26192.05906907  .00009660  00000+0  36022-3 0  9999", "line2": "2 63890  42.9987 199.6586 0001297 243.2382 116.8337 15.27569500 66656"}, {"name": "STARLINK-34123", "line1": "1 63891U 25095B   26192.40012999  .00009303  00000+0  34693-3 0  9994", "line2": "2 63891  43.0059 197.9259 0002683 270.3825  89.6720 15.27601779 66704"}, {"name": "STARLINK-33972", "line1": "1 63893U 25095D   26191.52826153  .00012215  00000+0  45236-3 0  9994", "line2": "2 63893  42.9995 202.5543 0001487 276.8090  83.2592 15.27602207 66577"}, {"name": "STARLINK-33973", "line1": "1 63894U 25095E   26192.34230556  .00009344  00000+0  34837-3 0  9996", "line2": "2 63894  43.0020 197.4860 0002519 295.9846  64.0746 15.27604463 66700"}, {"name": "STARLINK-34119", "line1": "1 63895U 25095F   26192.06547825  .00008591  00000+0  32105-3 0  9995", "line2": "2 63895  43.0007 199.7031 0005200 280.9156  79.1111 15.27603302 66657"}, {"name": "STARLINK-34143", "line1": "1 63896U 25095G   26192.43210493  .00008722  00000+0  32594-3 0  9993", "line2": "2 63896  43.0006 197.2966 0002059 281.8039  78.2581 15.27594804 66710"}, {"name": "STARLINK-33957", "line1": "1 63897U 25095H   26192.06935154  .00007574  00000+0  28434-3 0  9993", "line2": "2 63897  43.0015 199.7366 0001468 257.3553 102.7134 15.27595502 66649"}, {"name": "STARLINK-34120", "line1": "1 63898U 25095J   26192.40382919  .00006803  00000+0  25646-3 0  9993", "line2": "2 63898  43.0043 197.0854 0002456 282.0587  77.9989 15.27585179 66712"}, {"name": "STARLINK-34134", "line1": "1 63899U 25095K   26192.44752330  .00007280  00000+0  27379-3 0  9991", "line2": "2 63899  42.9997 197.4149 0002019 294.3481  65.7159 15.27583343 66719"}, {"name": "STARLINK-34118", "line1": "1 63900U 25095L   26192.38856906  .00006750  00000+0  25469-3 0  9990", "line2": "2 63900  43.0052 197.8307 0003664 263.2247  96.8187 15.27567533 66706"}, {"name": "STARLINK-34125", "line1": "1 63901U 25095M   26192.43981736  .00005376  00000+0  20470-3 0  9997", "line2": "2 63901  42.9979 197.3530 0001719 290.3842  69.6825 15.27588322 66703"}, {"name": "STARLINK-33955", "line1": "1 63902U 25095N   26192.41026508  .00014800  00000+0  54613-3 0  9991", "line2": "2 63902  43.0022 197.1335 0002128 288.0750  71.9870 15.27588364 66705"}, {"name": "STARLINK-34097", "line1": "1 63903U 25095P   26192.42954556  .00006680  00000+0  25207-3 0  9990", "line2": "2 63903  42.9996 197.2745 0001758 276.4316  83.6335 15.27576015 66703"}]